[{"OBJECT_NAME":"KUIPER-00014","OBJECT_ID":"2025-088G","EPOCH":"2026-03-09T12:14:38.382144","MEAN_MOTION":14.79898503,"ECCENTRICITY":3.348e-5,"INCLINATION":51.9,"RA_OF_ASC_NODE":109.8608,"ARG_OF_PERICENTER":71.1375,"MEAN_ANOMALY":288.9623,"EPHEMERIS_TYPE":0,"CLASSIFICATION_TYPE":"U","NORAD_CAT_ID":63730,"ELEMENT_SET_NO":999,"REV_AT_EPOCH":4734,"BSTAR":0.0006834098,"MEAN_MOTION_DOT":4.988e-5,"MEAN_MOTION_DDOT":0},{"OBJECT_NAME":"CZ-4B DEB","OBJECT_ID":"1999-057KR","EPOCH":"2026-03-08T21:27:23.518080","MEAN_MOTION":14.68092303,"ECCENTRICITY":0.00678544,"INCLINATION":98.5259,"RA_OF_ASC_NODE":148.2774,"ARG_OF_PERICENTER":14.7427,"MEAN_ANOMALY":45.6088,"EPHEMERIS_TYPE":0,"CLASSIFICATION_TYPE":"U","NORAD_CAT_ID":26444,"ELEMENT_SET_NO":999,"REV_AT_EPOCH":37434,"BSTAR":0.00047185746,"MEAN_MOTION_DOT":2.749e-5,"MEAN_MOTION_DDOT":0}]
